POLYITAN-1              
1 40042U 14033AJ  26201.51911443  .00011343  00000+0  34353-3 0  9992
2 40042  98.0937 230.9614 0007438  48.1858 312.0017 15.34334872658709
TIGRISAT                
1 40043U 14033AK  26201.19515269  .00000811  00000+0  99037-4 0  9992
2 40043  97.7872 350.4597 0048224 327.6805  32.1457 14.85257761650523
AEROCUBE 6A             
1 40045U 14033AM  26200.94905882  .00003519  00000+0  29632-3 0  9991
2 40045  97.7268   7.5592 0036108 264.4849  95.2254 14.98375370651520
AEROCUBE 6B             
1 40046U 14033AN  26201.38655460  .00003011  00000+0  24460-3 0  9996
2 40046  97.7208   7.8481 0038211 251.7787 107.9276 14.99826311651737
CANX-4                  
1 40055U 14034C   26201.45367442  .00000419  00000+0  60997-4 0  9990
2 40055  98.3075  77.9814 0011374 263.9065  96.0851 14.81316174649454
CANX-5                  
1 40056U 14034D   26201.45171887  .00000422  00000+0  61415-4 0  9997
2 40056  98.3078  78.0249 0011380 264.1725  95.8189 14.81333532640263
UKUBE-1                 
1 40074U 14037F   26201.48265127  .00004817  00000+0  26969-3 0  9990
2 40074  98.4252 208.2664 0003168  79.2263 280.9322 15.13998749653592
BRITE-PL2 (HEWELIUSZ)   
1 40119U 14049B   26201.31086453  .00000947  00000+0  92665-4 0  9995
2 40119  97.9121 313.5727 0013829   5.5650 354.5721 14.94694929646390
AEROCUBE 5C             
1 40965U 15058B   26201.49450712  .00002156  00000+0  19604-3 0  9992
2 40965  64.7663 158.9594 0132750  50.4146 310.8601 14.91597637370626
AEROCUBE 7              
1 40966U 15058C   26201.19437254  .00003005  00000+0  24415-3 0  9996
2 40966  64.7617 141.4119 0122408  48.8439 312.3159 14.95943283370891
FOX-1A (AO-85)          
1 40967U 15058D   26201.28466239  .00001929  00000+0  17930-3 0  9999
2 40967  64.7727 176.1140 0132783  43.8857 317.2710 14.91108157118503
SINOD-D 1               
1 40968U 15058E   26201.30211495  .00003176  00000+0  25651-3 0  9990
2 40968  64.7742 155.1914 0121489  40.2216 320.7809 14.96119091121616
SNAP-3 ALICE            
1 40970U 15058G   26200.84291273  .00095788  00000+0  83270-3 0  9994
2 40970  64.7501 350.3405 0025695 345.4772  14.5636 15.68116452121990
LMRST-SAT               
1 40971U 15058H   26201.31556586  .00001839  00000+0  17278-3 0  9998
2 40971  64.7735 172.4195 0134311  45.8734 315.3331 14.90722607118498
SNAP-3 EDDIE            
1 40972U 15058J   26201.37969059  .00110666  00000+0  89701-3 0  9997
2 40972  64.7407 338.9282 0027009 347.6349  12.4135 15.69708234124223
PROPCUBE 3              
1 40973U 15058K   26201.26931106  .00002626  00000+0  22189-3 0  9991
2 40973  64.7679 149.1590 0126183  47.0717 314.0900 14.94441789119740
BISONSAT                
1 40974U 15058L   26201.06914400  .00007486  00000+0  35494-3 0  9990
2 40974  64.7580  67.2584 0082521  33.7919 326.8425 15.17008188120606
SNAP-3 JIMI             
1 40975U 15058M   26201.13692353  .00004266  00000+0  29334-3 0  9998
2 40975  64.7643 115.4924 0108222  42.4177 318.5241 15.02651100119177
PROPCUBE 1 (FLORA)      
1 40976U 15058N   26201.36811515  .00001607  00000+0  15902-3 0  9999
2 40976  64.7718 192.3876 0132867  48.1240 313.1117 14.89344959121202
SINOD-D 3               
1 40977U 15058P   26201.37322754  .00002701  00000+0  23181-3 0  9997
2 40977  64.7711 172.1729 0121483  45.1505 315.9399 14.94200012119714
RAVAN                   
1 41849U 16067B   26201.22031252  .00034088  00000+0  45835-3 0  9994
2 41849  97.9827  94.6874 0002888 193.5482 166.5694 15.57823305532833
CELTEE 1                
1 41850U 16067C   26200.59937670  .00002504  00000+0  12003-3 0  9993
2 41850  98.0629  69.3765 0002435 104.1559 255.9945 15.19964565530805
OPTICUBE 04             
1 41851U 16067D   26201.41717668  .00001205  00000+0  78858-4 0  9997
2 41851  98.0671  55.4321 0015760  10.9128 349.2439 15.09784034530184
AEROCUBE 8D             
1 41852U 16067E   26201.16820890  .00003824  00000+0  15743-3 0  9994
2 41852  98.0634  73.8507 0004277  44.1254 316.0323 15.24809314531095
AEROCUBE 8C             
1 41853U 16067F   26201.45018201  .00004117  00000+0  16796-3 0  9997
2 41853  98.0509  71.3397 0003872 320.3189  39.7763 15.25065573531137
CORVUS BC2              
1 42846U 17042X   26201.40762294  .00001627  00000+0  11410-3 0  9998
2 42846  97.4096   1.4757 0012906   5.0892 355.0465 15.06471526492063
CORVUS BC1              
1 42847U 17042Y   26201.33217057  .00002030  00000+0  14079-3 0  9996
2 42847  97.4129   2.2388 0011142 341.5918  18.4905 15.06637295492086
MAKERSAT 0              
1 43016U 17073D   26201.47765744  .00012875  00000+0  33826-3 0  9994
2 43016  97.4572  84.2716 0105716 153.5455 207.1240 15.33132517471566
SIRION PATHFINDER-2     
1 43759U 18099B   26201.08076455  .00002733  00000+0  15058-3 0  9997
2 43759  97.4233 249.3587 0008997 174.6217 185.5114 15.14800599417602
CORVUS BC4              
1 43767U 18099K   26201.06607312  .00002513  00000+0  14702-3 0  9997
2 43767  97.4049 243.0855 0006764 239.8830 120.1731 15.12722668417372
